STARLINK-31280          
1 58843U 24017T   25212.14025991  .00000134  00000+0  16661-4 0  9996
2 58843  53.1587 153.5628 0001098 102.7258 257.3866 15.30190838 86157
STARLINK-31269          
1 58844U 24017U   25211.38781567  .00000476  00000+0  28208-4 0  9999
2 58844  53.1589 247.0206 0000950  80.8607 279.2501 15.30196586 84738
STARLINK-31264          
1 58845U 24017V   25211.79436670  .00000390  00000+0  25280-4 0  9999
2 58845  53.1580 244.5882 0001133  88.8016 271.3114 15.30195619 84805
STARLINK-31273          
1 58846U 24017W   25212.14342388  .00000197  00000+0  18783-4 0  9997
2 58846  53.1595 153.5804 0001185  95.6140 264.4996 15.30192150 86143
STARLINK-31262          
1 58847U 24017X   25211.80176931  .00000684  00000+0  35239-4 0  9995
2 58847  53.1584 244.6330 0001199  89.6462 270.4677 15.30189934 84803
STARLINK-31238          
1 58853U 24019A   25211.95681742 -.00000368  00000+0 -42111-5 0  9990
2 58853  43.0037  60.0690 0001450 267.6573  92.4112 15.25904899 84884
STARLINK-31158          
1 58854U 24019B   25211.91668981  .00024192  00000+0  88642-3 0  9993
2 58854  43.0008  61.4567 0001720 266.6926 118.4573 15.27555370  5861
STARLINK-31237          
1 58855U 24019C   25211.95054336  .00001572  00000+0  66622-4 0  9993
2 58855  43.0002  60.9227 0001121 277.6896  82.3828 15.27576772 85179
STARLINK-31244          
1 58856U 24019D   25211.96724586 -.00000558  00000+0 -10740-4 0  9991
2 58856  43.0058  61.0261 0001351 288.8981  71.1724 15.27577324 85013
STARLINK-31216          
1 58857U 24019E   25211.94430521  .00006176  00000+0  23367-3 0  9991
2 58857  43.0012  39.2693 0001410 274.3750  85.6941 15.27593196 85409
STARLINK-31226          
1 58858U 24019F   25211.91727474  .00000236  00000+0  18122-4 0  9990
2 58858  43.0025  61.5188 0001796 274.1057  85.9589 15.27581540 85160
STARLINK-31197          
1 58859U 24019G   25211.86345331  .00004837  00000+0  18513-3 0  9997
2 58859  43.0015  61.9627 0001715 267.1336  92.9320 15.27588218 85154
STARLINK-31213          
1 58860U 24019H   25211.96853307 -.00000033  00000+0  83241-5 0  9994
2 58860  43.0033  61.0318 0000996 273.7293  86.3445 15.27572289 85177
STARLINK-31199          
1 58861U 24019J   25211.31081480 -.00001681  00000+0 -51558-4 0  9995
2 58861  43.0033  64.7004 0001518 276.6040  83.4639 15.27580100 85076
STARLINK-31200          
1 58862U 24019K   25211.90058171  .00000017  00000+0  10109-4 0  9999
2 58862  42.9965  61.3916 0000372  35.9010 324.1867 15.27574564 85169
STARLINK-31149          
1 58863U 24019L   25211.93898447  .00003567  00000+0  13915-3 0  9991
2 58863  43.0039  60.8115 0001015 292.7124  67.3621 15.27559229 85179
STARLINK-31242          
1 58864U 24019M   25211.90700467 -.00000987  00000+0 -26357-4 0  9993
2 58864  43.0035  61.4336 0000782 310.3916  49.6867 15.27579157 85160
STARLINK-31223          
1 58865U 24019N   25211.91668981  .00037365  00000+0  13612-2 0  9995
2 58865  43.0013  61.4096 0001432 264.9939 141.2521 15.27561969  5904
STARLINK-31219          
1 58866U 24019P   25212.01463456  .00002559  00000+0  10245-3 0  9995
2 58866  43.0035  60.5166 0001354 271.8134  88.2562 15.27590654 84943
STARLINK-31198          
1 58867U 24019Q   25211.89286501 -.00000685  00000+0 -15396-4 0  9998
2 58867  43.0035  61.3142 0000937 295.9650  64.1105 15.27572534 85149
STARLINK-31196          
1 58868U 24019R   25211.99350308 -.00003291  00000+0 -11598-3 0  9992
2 58868  43.0012  61.2305 0001517 266.3937  93.6740 15.25918302 84933
STARLINK-31203          
1 58869U 24019S   25211.94308937  .00022305  00000+0  84263-3 0  9993
2 58869  43.0022  56.5078 0001620 255.2019 104.8653 15.26585532 85229
STARLINK-31201          
1 58870U 24019T   25211.94155380 -.00000391  00000+0 -46981-5 0  9997
2 58870  43.0035  60.8264 0001292 265.7985  94.2719 15.27568790 85158
STARLINK-31214          
1 58871U 24019U   25211.88900743 -.00001442  00000+0 -42904-4 0  9990
2 58871  43.0040  61.2801 0001029 273.7478  86.3256 15.27570485 85142
STARLINK-31215          
1 58872U 24019V   25211.95695613 -.00000825  00000+0 -20470-4 0  9994
2 58872  43.0043  60.9456 0001103 290.0163  70.0570 15.27583205 85013
STARLINK-31177          
1 58873U 24019W   25211.88643599  .00000192  00000+0  16492-4 0  9997
2 58873  43.0016  61.2764 0001047 274.6013  85.4719 15.27579763 85164
STARLINK-30945          
1 58874U 24019X   25211.91668981  .00028842  00000+0  10545-2 0  9997
2 58874  43.0003  61.5465 0001739 275.0291  67.7157 15.27548683  5891
STARLINK-31212          
1 58875U 24019Y   25211.94540018  .00001178  00000+0  52344-4 0  9999
2 58875  43.0029  60.8553 0001123 278.7630  81.3094 15.27572334 85153
STARLINK-31306          
1 58876U 24020A   25211.87510383 -.00000201  00000+0  53247-5 0  9997
2 58876  53.1589 272.4917 0001281  79.2005 280.9140 15.30192135 85281
STARLINK-31326          
1 58877U 24020B   25212.19227672 -.00012831  00000+0 -42101-3 0  9998
2 58877  53.1591 271.6208 0001345  66.6123 293.5019 15.30260398 85317
STARLINK-31300          
1 58878U 24020C   25211.87826808 -.00000007  00000+0  11883-4 0  9994
2 58878  53.1593 272.5105 0001090  93.2669 266.8456 15.30193831 84116
STARLINK-31296          
1 58879U 24020D   25211.82568864  .00000194  00000+0  14825-4 0  9990
2 58879  53.1585 249.4528 0001314  91.7392 268.3763 15.39619464 84432
STARLINK-31328          
1 58880U 24020E   25211.42102620 -.00000376  00000+0 -56137-6 0  9990
2 58880  53.1589 259.6319 0001221  82.5154 277.5986 15.30189064 84258
STARLINK-31260          
1 58881U 24020F   25211.88567587 -.00001201  00000+0 -28445-4 0  9995
2 58881  53.1592 272.5578 0001170 109.1771 250.9357 15.30179837 85286
STARLINK-31323          
1 58882U 24020G   25212.15008155 -.00001814  00000+0 -49138-4 0  9990
2 58882  53.1596 271.3610 0001046  92.4130 267.6990 15.30200364 85165
STARLINK-31209          
1 58883U 24020H   25211.82667111 -.00000046  00000+0  10561-4 0  9990
2 58883  53.1592 272.8992 0001194  85.9253 274.1884 15.30193176 84108
STARLINK-31315          
1 58884U 24020J   25212.12478651  .00002015  00000+0  80137-4 0  9997
2 58884  53.1582 246.2089 0000992  85.9601 274.1513 15.30192307 85501
STARLINK-31318          
1 58885U 24020K   25211.86254880  .00000455  00000+0  27483-4 0  9995
2 58885  53.1583 273.1116 0001052  83.8773 276.2348 15.30197328 84100
STARLINK-31320          
1 58886U 24020L   25212.15641666 -.00001668  00000+0 -44200-4 0  9996
2 58886  53.1600 271.4011 0001619  81.3628 278.7556 15.30199711 85317
STARLINK-31321          
1 58887U 24020M   25212.15957680 -.00000096  00000+0  89017-5 0  9992
2 58887  53.1598 271.4208 0001247  91.8521 268.2623 15.30191143 85159
STARLINK-31007          
1 58889U 24020P   25211.90148517 -.00000276  00000+0  27895-5 0  9993
2 58889  53.1602 272.6530 0001201  94.8735 265.2403 15.30191705 84110
STARLINK-31230          
1 58890U 24020Q   25211.43531368 -.00000036  00000+0  10918-4 0  9994
2 58890  53.1591 272.6194 0001287  91.5638 268.5510 15.30193909 84073
STARLINK-31245          
1 58891U 24020R   25211.74959046  .00000178  00000+0  18141-4 0  9998
2 58891  53.1583 232.1633 0001115  81.1336 278.9791 15.30197673 85826
STARLINK-31254          
1 58892U 24020S   25212.18280759  .00000639  00000+0  33708-4 0  9994
2 58892  53.1582 271.5774 0001052  62.4291 297.6816 15.30193063 85310
STARLINK-31255          
1 58893U 24020T   25212.16593284 -.00001424  00000+0 -35979-4 0  9990
2 58893  53.1597 271.4610 0001174  95.7522 264.3613 15.30176874 85313
STARLINK-31243          
1 58894U 24020U   25211.90781596 -.00000464  00000+0 -35535-5 0  9999
2 58894  53.1604 272.6930 0001151  83.9932 276.1200 15.30195181 84112
STARLINK-31218          
1 58895U 24020V   25212.17226121 -.00001723  00000+0 -46109-4 0  9995
2 58895  53.1595 271.4997 0000998  86.9920 273.1195 15.30174926 85205
STARLINK-31221          
1 58896U 24020W   25211.91668981  .00170332  00000+0  25775-2 0  9996
2 58896  53.1467 263.0279 0002933 335.9194 223.9966 15.53601754  5968
STARLINK-31190          
1 58897U 24020X   25211.46116766  .00000504  00000+0  29155-4 0  9997
2 58897  53.1583 274.8774 0001294  57.8975 302.2151 15.30190725 84043
STARLINK-31317          
1 58931U 24027A   25211.83979951  .00002228  00000+0  87296-4 0  9992
2 58931  53.1587 259.9876 0001095 102.6795 257.4328 15.30209926 83209
STARLINK-31378          
1 58932U 24027B   25211.84298337  .00000267  00000+0  21160-4 0  9995
2 58932  53.1585 260.0059 0001287  79.2480 280.8665 15.30191422 83369
STARLINK-31350          
1 58933U 24027C   25211.44158439 -.00000261  00000+0  32935-5 0  9998
2 58933  53.1585 261.7669 0000996  89.2939 270.8176 15.30192421 83301
STARLINK-31337          
1 58934U 24027D   25212.09156385 -.00002497  00000+0 -72206-4 0  9997
2 58934  53.1583 258.7126 0001124  72.9175 287.1949 15.30205800 83247
STARLINK-31362          
1 58935U 24027E   25211.94310828  .00000015  00000+0  12648-4 0  9991
2 58935  53.1589 259.9186 0001206  77.2950 282.8186 15.30195478 83371
STARLINK-31383          
1 58936U 24027F   25212.13799402  .00000061  00000+0  14186-4 0  9993
2 58936  53.1593 259.0031 0001133  79.5817 280.5312 15.30202217 83245
STARLINK-31390          
1 58937U 24027G   25211.87251861  .00000212  00000+0  19284-4 0  9998
2 58937  53.1595 260.1908 0001179  83.7613 276.3522 15.30191429 83366
STARLINK-31377          
1 58938U 24027H   25212.13694409  .00001246  00000+0  54185-4 0  9995
2 58938  53.1590 258.9942 0001269  69.1295 290.9841 15.30200558 83145
STARLINK-31372          
1 58939U 24027J   25211.86934946  .00003473  00000+0  12934-3 0  9997
2 58939  53.1596 260.1693 0001017  80.4717 279.6399 15.30193098 83362
STARLINK-31371          
1 58940U 24027K   25212.12956130  .00003196  00000+0  11998-3 0  9999
2 58940  53.1596 258.9474 0001394 119.4739 240.6401 15.30202918 83242
